0 SL-3 R/B
1 05918U 72022B   13281.81167140 -.00000027  00000-0 -24243-4 0  9966
2 05918 081.2392 189.1695 0059488 151.5654 285.0710 14.05658437128692
0 SL-3 R/B
1 05918U 72022B   13283.17867259 -.00000017  00000-0 -18331-4 0  9976
2 05918 081.2391 187.8478 0059558 147.7551 002.5735 14.05658542128883
0 SL-3 R/B
1 05918U 72022B   13285.79768587  .00000022  00000-0  53243-5 0  9998
2 05918 081.2389 185.3158 0059718 140.4346 295.7157 14.05658321129259
0 SL-3 R/B
1 05918U 72022B   13287.08096884  .00000052  00000-0  23526-4 0    02
2 05918 081.2386 184.0753 0059705 136.9395 309.4938 14.05658153129436
0 SL-3 R/B
1 05918U 72022B   13288.15270333  .00000037  00000-0  14307-4 0    15
2 05918 081.2384 183.0392 0059713 133.9606 332.8335 14.05658004129585
0 SL-3 R/B
1 05918U 72022B   13289.15840818  .00000034  00000-0  12925-4 0    29
2 05918 081.2382 182.0671 0059697 131.1908 022.0161 14.05658110129727
0 SL-3 R/B
1 05918U 72022B   13290.43329828  .00000042  00000-0  17461-4 0    35
2 05918 081.2378 180.8348 0059696 127.7071 353.3339 14.05658333129904
0 SL-3 R/B
1 05918U 72022B   13291.84729037  .00000023  00000-0  61045-5 0    45
2 05918 081.2376 179.4678 0059652 123.8358 308.5558 14.05658439130105
0 SL-3 R/B
1 05918U 72022B   13293.13378918  .00000025  00000-0  73163-5 0    54
2 05918 081.2374 178.2240 0059610 120.2701 338.6677 14.05658503130289
0 SL-3 R/B
1 05918U 72022B   13294.14103118  .00000024  00000-0  65990-5 0    63
2 05918 081.2374 177.2500 0059559 117.4910 035.6347 14.05658541130425
0 SL-3 R/B
1 05918U 72022B   13295.20092166  .00000032  00000-0  11394-4 0    79
2 05918 081.2373 176.2253 0059469 114.5779 359.0094 14.05658517130570
